start=new Date('2022-04-16T00:00:00.000Z').valueOf();
sats=[{"ECCENTRICITY":"0.00023450","ARG_OF_PERICENTER":"35.8115","EPOCH":"2022-04-15T22:00:00.999936","INCLINATION":"53.2161","CLASSIFICATION_TYPE":"U","APOAPSIS":"541.377","MEAN_MOTION_DOT":"0.00042457","MEAN_MOTION_DDOT":"0.0000000000000","RCS_SIZE":"LARGE","DECAY_DATE":null,"REF_FRAME":"TEME","TIME_SYSTEM":"UTC","SEMIMAJOR_AXIS":"6917.889","SITE":"AFETR","OBJECT_NAME":"STARLINK-3108","PERIOD":"95.438","BSTAR":"0.00266990000000","MEAN_ANOMALY":"5.0517","FILE":"3403567","TLE_LINE2":"2 49439  53.2161 120.6748 0002345  35.8115   5.0517 15.08837096  3585","RA_OF_ASC_NODE":"120.6748","PERIAPSIS":"538.132","LAUNCH_DATE":"2021-11-13","EPHEMERIS_TYPE":"0","REV_AT_EPOCH":"358","MEAN_ELEMENT_THEORY":"SGP4","COUNTRY_CODE":"US","NORAD_CAT_ID":"49439","MEAN_MOTION":"15.08837096","OBJECT_TYPE":"PAYLOAD","GP_ID":"201343567","CENTER_NAME":"EARTH","ELEMENT_SET_NO":"999","OBJECT_ID":"2021-104AH","TLE_LINE1":"1 49439U 21104AH  22105.91667824  .00042457  00000-0  26699-2 0  9996"},{"CENTER_NAME":"EARTH","ELEMENT_SET_NO":"999","OBJECT_ID":"2021-104AJ","NORAD_CAT_ID":"49440","MEAN_MOTION":"15.08833007","GP_ID":"201344319","OBJECT_TYPE":"PAYLOAD","TLE_LINE1":"1 49440U 21104AJ  22105.91667824  .00041852  00000-0  26326-2 0  9993","EPHEMERIS_TYPE":"0","LAUNCH_DATE":"2021-11-13","PERIAPSIS":"538.015","REV_AT_EPOCH":"358","MEAN_ELEMENT_THEORY":"SGP4","COUNTRY_CODE":"US","RA_OF_ASC_NODE":"120.6937","MEAN_ANOMALY":"288.0196","BSTAR":"0.00263260000000","TLE_LINE2":"2 49440  53.2175 120.6937 0002532  32.8349 288.0196 15.08833007  3580","FILE":"3403567","SEMIMAJOR_AXIS":"6917.902","OBJECT_NAME":"STARLINK-3105","PERIOD":"95.438","SITE":"AFETR","MEAN_MOTION_DOT":"0.00041852","MEAN_MOTION_DDOT":"0.0000000000000","REF_FRAME":"TEME","TIME_SYSTEM":"UTC","DECAY_DATE":null,"RCS_SIZE":"LARGE","INCLINATION":"53.2175","APOAPSIS":"541.518","CLASSIFICATION_TYPE":"U","ARG_OF_PERICENTER":"32.8349","ECCENTRICITY":"0.00025320","EPOCH":"2022-04-15T22:00:00.999936"},{"APOAPSIS":"541.442","CLASSIFICATION_TYPE":"U","INCLINATION":"53.2157","EPOCH":"2022-04-15T22:00:00.999936","ARG_OF_PERICENTER":"35.7665","ECCENTRICITY":"0.00023730","OBJECT_NAME":"STARLINK-3128","PERIOD":"95.439","SITE":"AFETR","SEMIMAJOR_AXIS":"6917.935","REF_FRAME":"TEME","TIME_SYSTEM":"UTC","RCS_SIZE":"LARGE","DECAY_DATE":null,"MEAN_MOTION_DOT":"0.00026501","MEAN_MOTION_DDOT":"0.0000000000000","RA_OF_ASC_NODE":"120.6726","TLE_LINE2":"2 49441  53.2157 120.6726 0002373  35.7665  25.1680 15.08822037  3571","FILE":"3403567","BSTAR":"0.00167770000000","MEAN_ANOMALY":"25.1680","TLE_LINE1":"1 49441U 21104AK  22105.91667824  .00026501  00000-0  16777-2 0  9997","CENTER_NAME":"EARTH","ELEMENT_SET_NO":"999","OBJECT_ID":"2021-104AK","NORAD_CAT_ID":"49441","MEAN_MOTION":"15.08822037","OBJECT_TYPE":"PAYLOAD","GP_ID":"201344070","REV_AT_EPOCH":"357","MEAN_ELEMENT_THEORY":"SGP4","COUNTRY_CODE":"US","EPHEMERIS_TYPE":"0","LAUNCH_DATE":"2021-11-13","PERIAPSIS":"538.159"},{"INCLINATION":"53.2184","APOAPSIS":"541.550","CLASSIFICATION_TYPE":"U","ARG_OF_PERICENTER":"37.7354","ECCENTRICITY":"0.00025400","EPOCH":"2022-04-15T22:00:00.999936","SEMIMAJOR_AXIS":"6917.928","OBJECT_NAME":"STARLINK-3098","PERIOD":"95.439","SITE":"AFETR","MEAN_MOTION_DDOT":"0.0000000000000","MEAN_MOTION_DOT":"0.00039682","REF_FRAME":"TEME","TIME_SYSTEM":"UTC","DECAY_DATE":null,"RCS_SIZE":"LARGE","RA_OF_ASC_NODE":"120.6885","MEAN_ANOMALY":"303.1548","BSTAR":"0.00249840000000","TLE_LINE2":"2 49442  53.2184 120.6885 0002540  37.7354 303.1548 15.08824344  3565","FILE":"3403567","CENTER_NAME":"EARTH","ELEMENT_SET_NO":"999","OBJECT_ID":"2021-104AL","MEAN_MOTION":"15.08824344","NORAD_CAT_ID":"49442","GP_ID":"201342818","OBJECT_TYPE":"PAYLOAD","TLE_LINE1":"1 49442U 21104AL  22105.91667824  .00039682  00000-0  24984-2 0  9991","LAUNCH_DATE":"2021-11-13","EPHEMERIS_TYPE":"0","PERIAPSIS":"538.036","REV_AT_EPOCH":"356","MEAN_ELEMENT_THEORY":"SGP4","COUNTRY_CODE":"US"},{"SEMIMAJOR_AXIS":"6917.866","SITE":"AFETR","PERIOD":"95.437","OBJECT_NAME":"STARLINK-3136","MEAN_MOTION_DDOT":"0.0000000000000","MEAN_MOTION_DOT":"0.00001511","DECAY_DATE":null,"RCS_SIZE":"LARGE","TIME_SYSTEM":"UTC","REF_FRAME":"TEME","INCLINATION":"53.2162","APOAPSIS":"541.273","CLASSIFICATION_TYPE":"U","ARG_OF_PERICENTER":"34.2142","ECCENTRICITY":"0.00022290","EPOCH":"2022-04-15T22:00:00.999936","GP_ID":"201343068","OBJECT_TYPE":"PAYLOAD","MEAN_MOTION":"15.08844553","NORAD_CAT_ID":"49443","OBJECT_ID":"2021-104AM","ELEMENT_SET_NO":"999","CENTER_NAME":"EARTH","TLE_LINE1":"1 49443U 21104AM  22105.91667824  .00001511  00000-0  11299-3 0  9998","PERIAPSIS":"538.189","EPHEMERIS_TYPE":"0","LAUNCH_DATE":"2021-11-13","MEAN_ELEMENT_THEORY":"SGP4","COUNTRY_CODE":"US","REV_AT_EPOCH":"357","RA_OF_ASC_NODE":"120.6735","MEAN_ANOMALY":"46.6906","BSTAR":"0.00011299000000","FILE":"3403567","TLE_LINE2":"2 49443  53.2162 120.6735 0002229  34.2142  46.6906 15.08844553  3579"},{"MEAN_MOTION_DOT":"0.00042341","MEAN_MOTION_DDOT":"0.0000000000000","DECAY_DATE":null,"RCS_SIZE":"LARGE","REF_FRAME":"TEME","TIME_SYSTEM":"UTC","SEMIMAJOR_AXIS":"6917.950","SITE":"AFETR","OBJECT_NAME":"STARLINK-3126","PERIOD":"95.439","ARG_OF_PERICENTER":"34.4045","ECCENTRICITY":"0.00023670","EPOCH":"2022-04-15T22:00:00.999936","INCLINATION":"53.2177","APOAPSIS":"541.453","CLASSIFICATION_TYPE":"U","PERIAPSIS":"538.178","EPHEMERIS_TYPE":"0","LAUNCH_DATE":"2021-11-13","REV_AT_EPOCH":"357","MEAN_ELEMENT_THEORY":"SGP4","COUNTRY_CODE":"US","NORAD_CAT_ID":"49444","MEAN_MOTION":"15.08817196","OBJECT_TYPE":"PAYLOAD","GP_ID":"201343820","CENTER_NAME":"EARTH","ELEMENT_SET_NO":"999","OBJECT_ID":"2021-104AN","TLE_LINE1":"1 49444U 21104AN  22105.91667824  .00042341  00000-0  26641-2 0  9991","MEAN_ANOMALY":"326.5376","BSTAR":"0.00266410000000","FILE":"3403567","TLE_LINE2":"2 49444  53.2177 120.6808 0002367  34.4045 326.5376 15.08817196  3578","RA_OF_ASC_NODE":"120.6808"},{"TLE_LINE2":"2 49445  53.2147 130.6912 0002366  26.9804 258.9526 15.08830383  3580","FILE":"3403567","BSTAR":"0.00124780000000","MEAN_ANOMALY":"258.9526","RA_OF_ASC_NODE":"130.6912","MEAN_ELEMENT_THEORY":"SGP4","COUNTRY_CODE":"US","REV_AT_EPOCH":"358","EPHEMERIS_TYPE":"0","LAUNCH_DATE":"2021-11-13","PERIAPSIS":"538.138","TLE_LINE1":"1 49445U 21104AP  22105.91667824  .00019622  00000-0  12478-2 0  9991","OBJECT_ID":"2021-104AP","CENTER_NAME":"EARTH","ELEMENT_SET_NO":"999","OBJECT_TYPE":"PAYLOAD","GP_ID":"201344570","NORAD_CAT_ID":"49445","MEAN_MOTION":"15.08830383","EPOCH":"2022-04-15T22:00:00.999936","ECCENTRICITY":"0.00023660","ARG_OF_PERICENTER":"26.9804","CLASSIFICATION_TYPE":"U","APOAPSIS":"541.412","INCLINATION":"53.2147","TIME_SYSTEM":"UTC","REF_FRAME":"TEME","DECAY_DATE":null,"RCS_SIZE":"LARGE","MEAN_MOTION_DOT":"0.00019622","MEAN_MOTION_DDOT":"0.0000000000000","PERIOD":"95.438","OBJECT_NAME":"STARLINK-3122","SITE":"AFETR","SEMIMAJOR_AXIS":"6917.910"},{"SITE":"AFETR","OBJECT_NAME":"STARLINK-3099","PERIOD":"95.438","SEMIMAJOR_AXIS":"6917.913","DECAY_DATE":null,"RCS_SIZE":"LARGE","REF_FRAME":"TEME","TIME_SYSTEM":"UTC","MEAN_MOTION_DOT":"0.00041144","MEAN_MOTION_DDOT":"0.0000000000000","CLASSIFICATION_TYPE":"U","APOAPSIS":"541.511","INCLINATION":"53.2171","EPOCH":"2022-04-15T22:00:00.999936","ECCENTRICITY":"0.00025050","ARG_OF_PERICENTER":"31.4513","TLE_LINE1":"1 49446U 21104AQ  22105.91667824  .00041144  00000-0  25889-2 0  9996","MEAN_MOTION":"15.08829194","NORAD_CAT_ID":"49446","GP_ID":"201343318","OBJECT_TYPE":"PAYLOAD","ELEMENT_SET_NO":"999","CENTER_NAME":"EARTH","OBJECT_ID":"2021-104AQ","REV_AT_EPOCH":"357","COUNTRY_CODE":"US","MEAN_ELEMENT_THEORY":"SGP4","PERIAPSIS":"538.045","EPHEMERIS_TYPE":"0","LAUNCH_DATE":"2021-11-13","RA_OF_ASC_NODE":"120.6787","FILE":"3403567","TLE_LINE2":"2 49446  53.2171 120.6787 0002505  31.4513 349.4372 15.08829194  3572","BSTAR":"0.00258890000000","MEAN_ANOMALY":"349.4372"},{"RA_OF_ASC_NODE":"130.6983","MEAN_ANOMALY":"297.0685","BSTAR":"0.00267320000000","FILE":"3403567","TLE_LINE2":"2 49447  53.2159 130.6983 0002452  28.8357 297.0685 15.08828804  3588","MEAN_MOTION":"15.08828804","NORAD_CAT_ID":"49447","OBJECT_TYPE":"PAYLOAD","GP_ID":"201343568","ELEMENT_SET_NO":"999","CENTER_NAME":"EARTH","OBJECT_ID":"2021-104AR","TLE_LINE1":"1 49447U 21104AR  22105.91667824  .00042501  00000-0  26732-2 0  9993","PERIAPSIS":"538.083","LAUNCH_DATE":"2021-11-13","EPHEMERIS_TYPE":"0","REV_AT_EPOCH":"358","COUNTRY_CODE":"US","MEAN_ELEMENT_THEORY":"SGP4","INCLINATION":"53.2159","CLASSIFICATION_TYPE":"U","APOAPSIS":"541.476","ECCENTRICITY":"0.00024520","ARG_OF_PERICENTER":"28.8357","EPOCH":"2022-04-15T22:00:00.999936","SEMIMAJOR_AXIS":"6917.915","SITE":"AFETR","OBJECT_NAME":"STARLINK-3115","PERIOD":"95.438","MEAN_MOTION_DDOT":"0.0000000000000","MEAN_MOTION_DOT":"0.00042501","DECAY_DATE":null,"RCS_SIZE":"LARGE","REF_FRAME":"TEME","TIME_SYSTEM":"UTC"},{"INCLINATION":"53.2155","APOAPSIS":"541.393","CLASSIFICATION_TYPE":"U","ARG_OF_PERICENTER":"32.3367","ECCENTRICITY":"0.00023930","EPOCH":"2022-04-15T22:00:00.999936","SEMIMAJOR_AXIS":"6917.872","PERIOD":"95.437","OBJECT_NAME":"STARLINK-3097","SITE":"AFETR","MEAN_MOTION_DOT":"0.00013186","MEAN_MOTION_DDOT":"0.0000000000000","TIME_SYSTEM":"UTC","REF_FRAME":"TEME","DECAY_DATE":null,"RCS_SIZE":"LARGE","RA_OF_ASC_NODE":"130.6943","BSTAR":"0.00084493000000","MEAN_ANOMALY":"233.5582","TLE_LINE2":"2 49448  53.2155 130.6943 0002393  32.3367 233.5582 15.08842693  3567","FILE":"3403567","OBJECT_ID":"2021-104AS","CENTER_NAME":"EARTH","ELEMENT_SET_NO":"999","OBJECT_TYPE":"PAYLOAD","GP_ID":"201344320","NORAD_CAT_ID":"49448","MEAN_MOTION":"15.08842693","TLE_LINE1":"1 49448U 21104AS  22105.91667824  .00013186  00000-0  84493-3 0  9990","LAUNCH_DATE":"2021-11-13","EPHEMERIS_TYPE":"0","PERIAPSIS":"538.082","COUNTRY_CODE":"US","MEAN_ELEMENT_THEORY":"SGP4","REV_AT_EPOCH":"356"}];
